NORAD_CAT_ID,OBJECT_NAME,OBJECT_TYPE,EPOCH,MEAN_MOTION,ECCENTRICITY,INCLINATION,RA_OF_ASC_NODE,ARG_OF_PERICENTER,MEAN_ANOMALY,BSTAR,MEAN_MOTION_DOT,MEAN_MOTION_DDOT,TLE_LINE0,TLE_LINE1,TLE_LINE2,SEMIMAJOR_AXIS,PERIOD,APOGEE,PERIGEE,DECAYED
54173.0,STARLINK-5242,PAYLOAD,2023-05-21 01:58:41,15.08835844,0.0001265,53.2165,278.8545,76.4282,283.6851,3.8483e-05,3.25e-06,0.0,0 STARLINK-5242,1 54173U 22141S   23141.08243019  .00000325  00000-0  38483-4 0  9998,2 54173  53.2165 278.8545 0001265  76.4282 283.6851 15.08835844 31335,6917.893,95.438,540.633,538.883,0.0
54173.0,STARLINK-5242,PAYLOAD,2023-05-21 11:31:01,15.08824612,9.18e-05,53.2153,277.0724,89.3515,270.7582,-7.0787e-05,-1.414e-05,0.0,0 STARLINK-5242,1 54173U 22141S   23141.47988225 -.00001414  00000-0 -70787-4 0  9991,2 54173  53.2153 277.0724 0000918  89.3515 270.7582 15.08824612 31393,6917.927,95.439,540.427,539.157,0.0
54173.0,STARLINK-5242,PAYLOAD,2023-05-21 16:17:11,15.08824683,7.55e-05,53.2158,276.1804,92.5193,267.5886,-7.1612e-05,-1.427e-05,0.0,0 STARLINK-5242,1 54173U 22141S   23141.67860299 -.00001427  00000-0 -71612-4 0  9995,2 54173  53.2158 276.1804 0000755  92.5193 267.5886 15.08824683 31427,6917.927,95.439,540.315,539.27,0.0
54173.0,STARLINK-5242,PAYLOAD,2023-05-21 19:27:57,15.08833855,0.0001062,53.216,275.5832,79.7468,280.3644,-1.8039e-06,-3.16e-06,0.0,0 STARLINK-5242,1 54173U 22141S   23141.81107713 -.00000316  00000-0 -18039-5 0  9997,2 54173  53.2160 275.5832 0001062  79.7468 280.3644 15.08833855 31446,6917.899,95.438,540.499,539.029,0.0
54173.0,STARLINK-5242,PAYLOAD,2023-05-22 01:49:29,15.08832667,0.0001088,53.216,274.3937,77.3359,282.7754,2.6101e-05,1.28e-06,0.0,0 STARLINK-5242,1 54173U 22141S   23142.07603903  .00000128  00000-0  26101-4 0  9995,2 54173  53.2160 274.3937 0001088  77.3359 282.7754 15.08832667 31482,6917.903,95.438,540.52,539.015,0.0
54173.0,STARLINK-5242,PAYLOAD,2023-05-22 08:11:01,15.08836626,0.0001063,53.2157,273.2033,73.5412,286.5697,1.3939e-05,-6.6e-07,0.0,0 STARLINK-5242,1 54173U 22141S   23142.34099369 -.00000066  00000-0  13939-4 0  9997,2 54173  53.2157 273.2033 0001063  73.5412 286.5697 15.08836626 31526,6917.891,95.438,540.491,539.02,0.0
54173.0,STARLINK-5242,PAYLOAD,2023-05-22 16:07:57,15.08845967,9.83e-05,53.215,271.7166,79.9655,280.1448,0.00023695,3.486e-05,0.0,0 STARLINK-5242,1 54173U 22141S   23142.67219009  .00003486  00000-0  23695-3 0  9995,2 54173  53.2150 271.7166 0000983  79.9655 280.1448 15.08845967 31575,6917.862,95.437,540.407,539.047,0.0
54173.0,STARLINK-5242,PAYLOAD,2023-05-23 15:58:44,15.08840111,0.0001148,53.215,267.2564,66.4104,293.7008,0.00023357,3.431e-05,0.0,0 STARLINK-5242,1 54173U 22141S   23143.66579753  .00003431  00000-0  23357-3 0  9995,2 54173  53.2150 267.2564 0001148  66.4104 293.7008 15.08840111 31726,6917.88,95.438,540.539,538.951,0.0
54173.0,STARLINK-5242,PAYLOAD,2023-05-24 14:14:08,15.08843515,0.0001261,53.2159,263.0957,65.3287,294.7836,0.00017195,2.45e-05,0.0,0 STARLINK-5242,1 54173U 22141S   23144.59315691  .00002450  00000-0  17195-3 0  9990,2 54173  53.2159 263.0957 0001261  65.3287 294.7836 15.08843515 31867,6917.87,95.437,540.607,538.862,0.0
54173.0,STARLINK-5242,PAYLOAD,2023-05-25 14:04:55,15.08842614,0.0001295,53.2169,258.6356,67.1192,292.9937,0.00010149,1.328e-05,0.0,0 STARLINK-5242,1 54173U 22141S   23145.58675686  .00001328  00000-0  10149-3 0  9998,2 54173  53.2169 258.6356 0001295  67.1192 292.9937 15.08842614 32012,6917.872,95.437,540.633,538.842,0.0
54173.0,STARLINK-5242,PAYLOAD,2023-05-26 12:20:20,15.08820445,9.17e-05,53.2166,254.4702,88.9456,271.1641,0.00037096,5.618e-05,0.0,0 STARLINK-5242,1 54173U 22141S   23146.51412423  .00005618  00000-0  37096-3 0  9996,2 54173  53.2166 254.4702 0000917  88.9456 271.1641 15.08820445 32156,6917.94,95.439,540.44,539.171,0.0
54173.0,STARLINK-5242,PAYLOAD,2023-05-27 10:35:43,15.08837447,0.0001043,53.2167,250.3063,87.4721,272.6391,5.05e-05,5.16e-06,0.0,0 STARLINK-5242,1 54173U 22141S   23147.44147742  .00000516  00000-0  50500-4 0  9996,2 54173  53.2167 250.3063 0001043  87.4721 272.6391 15.08837447 32295,6917.888,95.438,540.475,539.032,0.0
54173.0,STARLINK-5242,PAYLOAD,2023-05-27 13:46:29,15.08840608,9.68e-05,53.2165,249.7118,88.3156,271.7947,7.7408e-05,9.44e-06,0.0,0 STARLINK-5242,1 54173U 22141S   23147.57395479  .00000944  00000-0  77408-4 0  9993,2 54173  53.2165 249.7118 0000968  88.3156 271.7947 15.08840608 32316,6917.879,95.438,540.413,539.074,0.0
54173.0,STARLINK-5242,PAYLOAD,2023-05-27 23:18:48,15.08840079,9.1e-05,53.2163,247.9281,88.4457,271.6639,6.7257e-05,7.83e-06,0.0,0 STARLINK-5242,1 54173U 22141S   23147.97139504  .00000783  00000-0  67257-4 0  9994,2 54173  53.2163 247.9281 0000910  88.4457 271.6639 15.08840079 32372,6917.88,95.438,540.375,539.116,0.0
54173.0,STARLINK-5242,PAYLOAD,2023-05-28 15:12:39,15.08841884,9.68e-05,53.2158,244.9554,93.7025,266.4078,0.00011715,1.577e-05,0.0,0 STARLINK-5242,1 54173U 22141S   23148.63379418  .00001577  00000-0  11715-3 0  9997,2 54173  53.2158 244.9554 0000968  93.7025 266.4078 15.08841884 32474,6917.875,95.437,540.409,539.07,0.0
54173.0,STARLINK-5242,PAYLOAD,2023-05-29 13:28:03,15.08844543,9.65e-05,53.2159,240.7922,91.4988,268.6114,8.3749e-05,1.046e-05,0.0,0 STARLINK-5242,1 54173U 22141S   23149.56115337  .00001046  00000-0  83749-4 0  9996,2 54173  53.2159 240.7922 0000965  91.4988 268.6114 15.08844543 32614,6917.867,95.437,540.399,539.064,0.0
54173.0,STARLINK-5242,PAYLOAD,2023-05-29 15:03:26,15.08846493,9.81e-05,53.2159,240.4946,89.4664,270.644,9.8165e-05,1.275e-05,0.0,0 STARLINK-5242,1 54173U 22141S   23149.62739165  .00001275  00000-0  98165-4 0  9996,2 54173  53.2159 240.4946 0000981  89.4664 270.6440 15.08846493 32625,6917.861,95.437,540.404,539.047,0.0
54173.0,STARLINK-5242,PAYLOAD,2023-05-29 23:00:22,15.08839218,9.54e-05,53.2161,239.0085,97.0622,263.0479,3.7353e-05,3.07e-06,0.0,0 STARLINK-5242,1 54173U 22141S   23149.95859745  .00000307  00000-0  37353-4 0  9996,2 54173  53.2161 239.0085 0000954  97.0622 263.0479 15.08839218 32675,6917.883,95.438,540.408,539.088,0.0
54173.0,STARLINK-5242,PAYLOAD,2023-05-30 11:43:28,15.08835698,0.0001067,53.2165,236.6275,90.1403,269.9711,-1.0873e-05,-4.61e-06,0.0,0 STARLINK-5242,1 54173U 22141S   23150.48852285 -.00000461  00000-0 -10873-4 0  9999,2 54173  53.2165 236.6275 0001067  90.1403 269.9711 15.08835698 32751,6917.894,95.438,540.497,539.02,0.0
54173.0,STARLINK-5242,PAYLOAD,2023-05-30 14:54:14,15.08838356,0.0001192,53.2175,236.0291,85.1735,274.9393,-3.877e-06,-3.5e-06,0.0,0 STARLINK-5242,1 54173U 22141S   23150.62100118 -.00000350  00000-0 -38770-5 0  9990,2 54173  53.2175 236.0291 0001192  85.1735 274.9393 15.08838356 32773,6917.885,95.438,540.575,538.926,0.0
54173.0,STARLINK-5242,PAYLOAD,2023-05-31 09:58:51,15.08844325,0.0001073,53.2161,232.4654,92.7721,267.3394,7.1572e-05,8.52e-06,0.0,0 STARLINK-5242,1 54173U 22141S   23151.41587493  .00000852  00000-0  71572-4 0  9994,2 54173  53.2161 232.4654 0001073  92.7721 267.3394 15.08844325 32891,6917.867,95.437,540.474,538.99,0.0
54173.0,STARLINK-5242,PAYLOAD,2023-05-31 13:09:37,15.08849283,0.0001048,53.2164,231.8711,93.6078,266.5034,5.7881e-05,6.34e-06,0.0,0 STARLINK-5242,1 54173U 22141S   23151.54835207  .00000634  00000-0  57881-4 0  9992,2 54173  53.2164 231.8711 0001048  93.6078 266.5034 15.08849283 32911,6917.852,95.437,540.442,538.992,0.0
54173.0,STARLINK-5242,PAYLOAD,2023-06-01 09:49:39,15.08836191,0.0001086,53.2164,228.0058,95.196,264.9156,7.6739e-05,9.34e-06,0.0,0 STARLINK-5242,1 54173U 22141S   23152.40948001  .00000934  00000-0  76739-4 0  9991,2 54173  53.2164 228.0058 0001086  95.1960 264.9156 15.08836191 33048,6917.892,95.438,540.508,539.006,0.0
54173.0,STARLINK-5242,PAYLOAD,2023-06-01 22:32:44,15.08822709,0.0001268,53.2157,225.6278,69.445,290.6678,0.00020868,3.033e-05,0.0,0 STARLINK-5242,1 54173U 22141S   23152.93940855  .00003033  00000-0  20868-3 0  9992,2 54173  53.2157 225.6278 0001268  69.4450 290.6678 15.08822709 33121,6917.933,95.439,540.675,538.921,0.0
54173.0,STARLINK-5242,PAYLOAD,2023-06-02 11:15:50,15.0882832,9.88e-05,53.2165,223.2463,90.2876,269.8229,-0.00012961,-2.349e-05,0.0,0 STARLINK-5242,1 54173U 22141S   23153.46933540 -.00002349  00000-0 -12961-3 0  9990,2 54173  53.2165 223.2463 0000988  90.2876 269.8229 15.08828320 33206,6917.916,95.438,540.465,539.098,0.0
54173.0,STARLINK-5242,PAYLOAD,2023-06-02 23:58:55,15.0882882,9.33e-05,53.2161,220.8669,102.22,257.8897,1.0315e-05,-1.24e-06,0.0,0 STARLINK-5242,1 54173U 22141S   23153.99925436 -.00000124  00000-0  10315-4 0  9993,2 54173  53.2161 220.8669 0000933 102.2200 257.8897 15.08828820 33289,6917.915,95.438,540.425,539.134,0.0
54173.0,STARLINK-5242,PAYLOAD,2023-06-03 11:06:37,15.08836697,9.44e-05,53.216,218.7856,95.2869,264.8231,6.2423e-05,7.06e-06,0.0,0 STARLINK-5242,1 54173U 22141S   23154.46293164  .00000706  00000-0  62423-4 0  9994,2 54173  53.2160 218.7856 0000944  95.2869 264.8231 15.08836697 33355,6917.89,95.438,540.409,539.102,0.0
54173.0,STARLINK-5242,PAYLOAD,2023-06-04 10:57:24,15.08851513,8.91e-05,53.2147,214.3249,84.1166,275.9928,0.00044837,6.857e-05,0.0,0 STARLINK-5242,1 54173U 22141S   23155.45652908  .00006857  00000-0  44837-3 0  9990,2 54173  53.2147 214.3249 0000891  84.1166 275.9928 15.08851513 33503,6917.845,95.437,540.327,539.094,0.0
54173.0,STARLINK-5242,PAYLOAD,2023-06-04 20:29:42,15.08852731,9.66e-05,53.2144,212.5417,70.2777,289.832,0.0002858,4.265e-05,0.0,0 STARLINK-5242,1 54173U 22141S   23155.85396751  .00004265  00000-0  28580-3 0  9993,2 54173  53.2144 212.5417 0000966  70.2777 289.8320 15.08852731 33563,6917.841,95.437,540.375,539.038,0.0
54173.0,STARLINK-5242,PAYLOAD,2023-06-05 10:48:10,15.08852919,9.63e-05,53.2142,209.8658,77.0215,283.0884,0.00012746,1.742e-05,0.0,0 STARLINK-5242,1 54173U 22141S   23156.45012220  .00001742  00000-0  12746-3 0  9990,2 54173  53.2142 209.8658 0000963  77.0215 283.0884 15.08852919 33655,6917.841,95.437,540.372,539.04,0.0
